 Automated mail xmit by MAIL_REQUEST, PID=   3657 Sat Apr 12 04:59:52 2014
++++++++++++++++++++++++++++++++ (part 1 of 1)  
++++++++++++++++++++++++++++++++ +++++++++++++++++++++++++++++++

*******************************************************************************
 Revised: Dec 02, 2013           Europa / (Jupiter)                         502

 SATELLITE PHYSICAL PROPERTIES:
  Radius (km)             = 1565   +- 8     Density (g cm^-3)   =  2.99 +- 0.05
  Mass (10^20 kg )        =  479.7 +- 1.5   Geometric Albedo    =  0.6  

 SATELLITE ORBITAL DATA:
  Semi-major axis, a (km) = 671.079 (10^3)  Orbital period      = 3.551810 d
  Eccentricity, e         = 0.0101          Rotational period   = Synchronous
  Inclination, i  (deg)   = 0.464
*******************************************************************************
 
 
*******************************************************************************
Ephemeris / MAIL_REQUEST Sat Apr 12 04:59:52 2014 Pasadena, USA  / Horizons    
*******************************************************************************
Target body name: Europa (502)                    {source: JUP310}
Center body name: Sun (10)                        {source: DE-0431LE-0431}
Center-site name: BODY CENTER
*******************************************************************************
Start time      : A.D. 2013-Jan-01 10:00:00.0000 CT 
Stop  time      : A.D. 2014-Jan-01 10:00:00.0000 CT 
Step-size       : 2 steps
*******************************************************************************
Center geodetic : 0.00000000,0.00000000,0.0000000 {E-lon(deg),Lat(deg),Alt(km)} Center cylindric: 0.00000000,0.00000000,0.0000000 {E-lon(deg),Dxy(km),Dz(km)}
Center radii    : 696000.0 x 696000.0 x 696000.0 k{Equator, meridian, pole}    
Output units    : AU-D                                                         
Output format   : 03
Reference frame : ICRF/J2000.0                                                 
Output type     : GEOMETRIC cartesian states
Coordinate systm: Ecliptic and Mean Equinox of Reference Epoch                 
*******************************************************************************
JDCT ,   , X, Y, Z, VX, VY, VZ, LT, RG, RR,
*******************************************************************************
$$SOE
2456293.916666667, A.D. 2013-Jan-01 10:00:00.0000,  1.425228495203235E+00,  4.856332685867420E+00, -5.211692280392653E-02, -1.464459876291738E-03,  7.923440272822590E-03,  4.512972491679311E-04,  2.923231667679971E-02,  5.061418733221556E+00,  7.185367132944017E-03, 2456476.416666667, A.D. 2013-Jul-02 22:00:00.0000,  4.595026486743096E-02,  5.129862059731028E+00, -2.212702641932175E-02, -1.557054132910540E-02, -1.204581671443899E-05,  6.023366994540565E-05,  2.962907652956310E-02,  5.130115572188156E+00, -1.517698105225467E-04, 2456658.916666667, A.D. 2014-Jan-01 10:00:00.0000, -1.336508794904786E+00,  5.014389460197471E+00,  8.813713060939723E-03, -9.845804256758870E-04, -6.140121946548535E-03,  5.008346393528662E-05,  2.997178797634933E-02,  5.189454219755219E+00, -5.679329599135225E-03, $$EOE
*******************************************************************************
Coordinate system description:

  Ecliptic and Mean Equinox of Reference Epoch

    Reference epoch: J2000.0
    xy-plane: plane of the Earth's orbit at the reference epoch
    x-axis  : out along ascending node of instantaneous plane of the Earth's
              orbit and the Earth's mean equator at the reference epoch
    z-axis  : perpendicular to the xy-plane in the directional (+ or -) sense
              of Earth's north pole at the reference epoch.

Symbol meaning [1 au=149597870.700 km, 1 day=86400.0 s]:

    JDCT     Epoch Julian Date, Coordinate Time
      X      x-component of position vector (AU)                               
      Y      y-component of position vector (AU)                               
      Z      z-component of position vector (AU)                               
      VX     x-component of velocity vector (AU/day)                           
      VY     y-component of velocity vector (AU/day)                           
      VZ     z-component of velocity vector (AU/day)                           
      LT     One-way down-leg Newtonian light-time (day)                       
      RG     Range; distance from coordinate center (AU)                       
      RR     Range-rate; radial velocity wrt coord. center (AU/day)            

Geometric states/elements have no aberration corrections applied.

 Computations by ...
     Solar System Dynamics Group, Horizons On-Line Ephemeris System
     4800 Oak Grove Drive, Jet Propulsion Laboratory
     Pasadena, CA  91109   USA
     Information: http://ssd.jpl.nasa.gov/
     Connect    : telnet://ssd.jpl.nasa.gov:6775  (via browser)
                  telnet ssd.jpl.nasa.gov 6775    (via command-line)
     Author     : Jon.Giorgini@jpl.nasa.gov
*******************************************************************************
